[{"OBJECT_NAME":"ION SCV-022","OBJECT_ID":"2025-276S","EPOCH":"2026-03-09T17:53:05.489952","MEAN_MOTION":14.97347265,"ECCENTRICITY":0.00045393,"INCLINATION":97.5376,"RA_OF_ASC_NODE":142.978,"ARG_OF_PERICENTER":154.7099,"MEAN_ANOMALY":205.4346,"EPHEMERIS_TYPE":0,"CLASSIFICATION_TYPE":"U","NORAD_CAT_ID":66682,"ELEMENT_SET_NO":999,"REV_AT_EPOCH":1519,"BSTAR":0.00017276803,"MEAN_MOTION_DOT":1.95e-5,"MEAN_MOTION_DDOT":0},{"OBJECT_NAME":"STARLINK-35966","OBJECT_ID":"2025-280A","EPOCH":"2026-03-09T23:21:18.593568","MEAN_MOTION":14.98332696,"ECCENTRICITY":0.00028489,"INCLINATION":70.0017,"RA_OF_ASC_NODE":333.9298,"ARG_OF_PERICENTER":271.3712,"MEAN_ANOMALY":88.7121,"EPHEMERIS_TYPE":0,"CLASSIFICATION_TYPE":"U","NORAD_CAT_ID":66821,"ELEMENT_SET_NO":999,"REV_AT_EPOCH":1611,"BSTAR":0.00025589932,"MEAN_MOTION_DOT":2.962e-5,"MEAN_MOTION_DDOT":0}]
